{
  "norad_id": 68710,
  "name": "STARLINK-36859",
  "history": [
    {
      "epoch": "2026-04-23T12:30:15.745248Z",
      "apogee_km": 316.15382624972517,
      "perigee_km": 315.95969463067195,
      "latitude_deg": -2.0990013953141736e-05,
      "longitude_deg": 157.04552144366684,
      "height_km": 316.91549875532354,
      "semi_major_axis_km": 6694.193760440198,
      "eccentricity": 1.45e-05,
      "inclination_deg": 53.1601,
      "raan_deg": 196.1782,
      "arg_perigee_deg": 50.193,
      "mean_anomaly_deg": 309.9107,
      "mean_motion_rev_day": 15.85095175
    }
  ]
}