STARLINK-36859          
1 68710U 26081M   26113.52101557 -.00657054  00000+0 -29355-2 0  9992
2 68710  53.1601 196.1782 0000145  50.1930 309.9107 15.85095175  1468
